STARLINK-37134          
1 68281U 26055V   26090.16667824 -.01497728  63272-3 -46297-2 0  9993
2 68281  53.1571 229.6081 0000796  64.6795 129.1544 15.91118731  3080
STARLINK-37160          
1 68282U 26055W   26090.16667824 -.01492411  62818-3 -46303-2 0  9991
2 68282  53.1573 229.6175 0001028  66.5244 123.1902 15.91045959  3089
STARLINK-37124          
1 68283U 26055X   26090.16667824 -.01493486  62993-3 -45974-2 0  9992
2 68283  53.1573 229.6009 0000908  66.9904 130.5831 15.91199092  3080
STARLINK-37159          
1 68284U 26055Y   26090.16667824 -.01495560  63194-3 -45880-2 0  9998
2 68284  53.1574 229.5917 0000917  72.9398 128.9817 15.91266286  3088
STARLINK-36725          
1 68285U 26055Z   26090.16667824 -.01509258  64317-3 -46075-2 0  9994
2 68285  53.1570 229.5834 0000877  67.8818 137.7394 15.91363120  3081
STARLINK-36998          
1 68286U 26055AA  26090.16667824 -.01669689  77551-3 -50529-2 0  9993
2 68286  53.1579 229.5670 0000858  66.1213 148.2319 15.91558558  3084
STARLINK-37165          
1 68287U 26055AB  26090.16667824 -.01737892  83551-3 -52388-2 0  9998
2 68287  53.1575 229.5567 0000900  74.4712 144.0341 15.91644584  3084
STARLINK-37016          
1 68288U 26055AC  26090.16667824 -.01561710  68532-3 -47459-2 0  9998
2 68288  53.1572 229.5752 0000915  64.9007 144.8889 15.91460419  3083
STARLINK-37010          
1 68289U 26055AD  26090.16667824 -.01759080  85504-3 -52820-2 0  9994
2 68289  53.1578 229.5484 0000873  70.3818 151.9101 15.91723095  3084
STARLINK-37151          
1 68290U 26055AE  26090.16667824 -.01795395  88882-3 -53638-2 0  9995
2 68290  53.1573 229.5416 0000733  76.1939 149.5557 15.91826710  3085
STRIX-6                 
1 68291U 26056A   26090.11157560  .00006320  00000+0  52653-3 0  9992
2 68291  50.2845 358.7202 0016571 304.8144  55.1245 14.99636442  1554
ELECTRON R/B            
1 68292U 26056B   26090.18029615  .09195672  12061-4  58218-3 0  9995
2 68292  50.2498 351.4745 0095099 288.2713  70.7957 16.24789301  1657
