CCSDS_OMM_VERS = 2.0
CREATION_DATE  = 
ORIGINATOR     = 

OBJECT_NAME    = STARLINK-37134
OBJECT_ID      = 2026-055V
CENTER_NAME    = EARTH
REF_FRAME      = TEME
TIME_SYSTEM    = UTC
MEAN_ELEMENT_THEORY = SGP/SGP4

EPOCH          = 2026-03-31T04:00:00.999936
MEAN_MOTION    = 15.91118731
ECCENTRICITY   = .0000796
INCLINATION    = 53.1571
RA_OF_ASC_NODE = 229.6081
ARG_OF_PERICENTER = 64.6795
MEAN_ANOMALY   = 129.1544

EPHEMERIS_TYPE = 0
CLASSIFICATION_TYPE = U
NORAD_CAT_ID   = 68281
ELEMENT_SET_NO = 999
REV_AT_EPOCH   = 308
BSTAR          = -.46297E-2
MEAN_MOTION_DOT = -.1497728E-1
MEAN_MOTION_DDOT = .63272E-3

CCSDS_OMM_VERS = 2.0
CREATION_DATE  = 
ORIGINATOR     = 

OBJECT_NAME    = STARLINK-37160
OBJECT_ID      = 2026-055W
CENTER_NAME    = EARTH
REF_FRAME      = TEME
TIME_SYSTEM    = UTC
MEAN_ELEMENT_THEORY = SGP/SGP4

EPOCH          = 2026-03-31T04:00:00.999936
MEAN_MOTION    = 15.91045959
ECCENTRICITY   = .0001028
INCLINATION    = 53.1573
RA_OF_ASC_NODE = 229.6175
ARG_OF_PERICENTER = 66.5244
MEAN_ANOMALY   = 123.1902

EPHEMERIS_TYPE = 0
CLASSIFICATION_TYPE = U
NORAD_CAT_ID   = 68282
ELEMENT_SET_NO = 999
REV_AT_EPOCH   = 308
BSTAR          = -.46303E-2
MEAN_MOTION_DOT = -.1492411E-1
MEAN_MOTION_DDOT = .62818E-3

CCSDS_OMM_VERS = 2.0
CREATION_DATE  = 
ORIGINATOR     = 

OBJECT_NAME    = STARLINK-37124
OBJECT_ID      = 2026-055X
CENTER_NAME    = EARTH
REF_FRAME      = TEME
TIME_SYSTEM    = UTC
MEAN_ELEMENT_THEORY = SGP/SGP4

EPOCH          = 2026-03-31T04:00:00.999936
MEAN_MOTION    = 15.91199092
ECCENTRICITY   = .0000908
INCLINATION    = 53.1573
RA_OF_ASC_NODE = 229.6009
ARG_OF_PERICENTER = 66.9904
MEAN_ANOMALY   = 130.5831

EPHEMERIS_TYPE = 0
CLASSIFICATION_TYPE = U
NORAD_CAT_ID   = 68283
ELEMENT_SET_NO = 999
REV_AT_EPOCH   = 308
BSTAR          = -.45974E-2
MEAN_MOTION_DOT = -.1493486E-1
MEAN_MOTION_DDOT = .62993E-3

CCSDS_OMM_VERS = 2.0
CREATION_DATE  = 
ORIGINATOR     = 

OBJECT_NAME    = STARLINK-37159
OBJECT_ID      = 2026-055Y
CENTER_NAME    = EARTH
REF_FRAME      = TEME
TIME_SYSTEM    = UTC
MEAN_ELEMENT_THEORY = SGP/SGP4

EPOCH          = 2026-03-31T04:00:00.999936
MEAN_MOTION    = 15.91266286
ECCENTRICITY   = .0000917
INCLINATION    = 53.1574
RA_OF_ASC_NODE = 229.5917
ARG_OF_PERICENTER = 72.9398
MEAN_ANOMALY   = 128.9817

EPHEMERIS_TYPE = 0
CLASSIFICATION_TYPE = U
NORAD_CAT_ID   = 68284
ELEMENT_SET_NO = 999
REV_AT_EPOCH   = 308
BSTAR          = -.4588E-2
MEAN_MOTION_DOT = -.149556E-1
MEAN_MOTION_DDOT = .63194E-3

CCSDS_OMM_VERS = 2.0
CREATION_DATE  = 
ORIGINATOR     = 

OBJECT_NAME    = STARLINK-36725
OBJECT_ID      = 2026-055Z
CENTER_NAME    = EARTH
REF_FRAME      = TEME
TIME_SYSTEM    = UTC
MEAN_ELEMENT_THEORY = SGP/SGP4

EPOCH          = 2026-03-31T04:00:00.999936
MEAN_MOTION    = 15.91363120
ECCENTRICITY   = .0000877
INCLINATION    = 53.1570
RA_OF_ASC_NODE = 229.5834
ARG_OF_PERICENTER = 67.8818
MEAN_ANOMALY   = 137.7394

EPHEMERIS_TYPE = 0
CLASSIFICATION_TYPE = U
NORAD_CAT_ID   = 68285
ELEMENT_SET_NO = 999
REV_AT_EPOCH   = 308
BSTAR          = -.46075E-2
MEAN_MOTION_DOT = -.1509258E-1
MEAN_MOTION_DDOT = .64317E-3

CCSDS_OMM_VERS = 2.0
CREATION_DATE  = 
ORIGINATOR     = 

OBJECT_NAME    = STARLINK-36998
OBJECT_ID      = 2026-055AA
CENTER_NAME    = EARTH
REF_FRAME      = TEME
TIME_SYSTEM    = UTC
MEAN_ELEMENT_THEORY = SGP/SGP4

EPOCH          = 2026-03-31T04:00:00.999936
MEAN_MOTION    = 15.91558558
ECCENTRICITY   = .0000858
INCLINATION    = 53.1579
RA_OF_ASC_NODE = 229.5670
ARG_OF_PERICENTER = 66.1213
MEAN_ANOMALY   = 148.2319

EPHEMERIS_TYPE = 0
CLASSIFICATION_TYPE = U
NORAD_CAT_ID   = 68286
ELEMENT_SET_NO = 999
REV_AT_EPOCH   = 308
BSTAR          = -.50529E-2
MEAN_MOTION_DOT = -.1669689E-1
MEAN_MOTION_DDOT = .77551E-3

CCSDS_OMM_VERS = 2.0
CREATION_DATE  = 
ORIGINATOR     = 

OBJECT_NAME    = STARLINK-37165
OBJECT_ID      = 2026-055AB
CENTER_NAME    = EARTH
REF_FRAME      = TEME
TIME_SYSTEM    = UTC
MEAN_ELEMENT_THEORY = SGP/SGP4

EPOCH          = 2026-03-31T04:00:00.999936
MEAN_MOTION    = 15.91644584
ECCENTRICITY   = .00009
INCLINATION    = 53.1575
RA_OF_ASC_NODE = 229.5567
ARG_OF_PERICENTER = 74.4712
MEAN_ANOMALY   = 144.0341

EPHEMERIS_TYPE = 0
CLASSIFICATION_TYPE = U
NORAD_CAT_ID   = 68287
ELEMENT_SET_NO = 999
REV_AT_EPOCH   = 308
BSTAR          = -.52388E-2
MEAN_MOTION_DOT = -.1737892E-1
MEAN_MOTION_DDOT = .83551E-3

CCSDS_OMM_VERS = 2.0
CREATION_DATE  = 
ORIGINATOR     = 

OBJECT_NAME    = STARLINK-37016
OBJECT_ID      = 2026-055AC
CENTER_NAME    = EARTH
REF_FRAME      = TEME
TIME_SYSTEM    = UTC
MEAN_ELEMENT_THEORY = SGP/SGP4

EPOCH          = 2026-03-31T04:00:00.999936
MEAN_MOTION    = 15.91460419
ECCENTRICITY   = .0000915
INCLINATION    = 53.1572
RA_OF_ASC_NODE = 229.5752
ARG_OF_PERICENTER = 64.9007
MEAN_ANOMALY   = 144.8889

EPHEMERIS_TYPE = 0
CLASSIFICATION_TYPE = U
NORAD_CAT_ID   = 68288
ELEMENT_SET_NO = 999
REV_AT_EPOCH   = 308
BSTAR          = -.47459E-2
MEAN_MOTION_DOT = -.156171E-1
MEAN_MOTION_DDOT = .68532E-3

CCSDS_OMM_VERS = 2.0
CREATION_DATE  = 
ORIGINATOR     = 

OBJECT_NAME    = STARLINK-37010
OBJECT_ID      = 2026-055AD
CENTER_NAME    = EARTH
REF_FRAME      = TEME
TIME_SYSTEM    = UTC
MEAN_ELEMENT_THEORY = SGP/SGP4

EPOCH          = 2026-03-31T04:00:00.999936
MEAN_MOTION    = 15.91723095
ECCENTRICITY   = .0000873
INCLINATION    = 53.1578
RA_OF_ASC_NODE = 229.5484
ARG_OF_PERICENTER = 70.3818
MEAN_ANOMALY   = 151.9101

EPHEMERIS_TYPE = 0
CLASSIFICATION_TYPE = U
NORAD_CAT_ID   = 68289
ELEMENT_SET_NO = 999
REV_AT_EPOCH   = 308
BSTAR          = -.5282E-2
MEAN_MOTION_DOT = -.175908E-1
MEAN_MOTION_DDOT = .85504E-3

CCSDS_OMM_VERS = 2.0
CREATION_DATE  = 
ORIGINATOR     = 

OBJECT_NAME    = STARLINK-37151
OBJECT_ID      = 2026-055AE
CENTER_NAME    = EARTH
REF_FRAME      = TEME
TIME_SYSTEM    = UTC
MEAN_ELEMENT_THEORY = SGP/SGP4

EPOCH          = 2026-03-31T04:00:00.999936
MEAN_MOTION    = 15.91826710
ECCENTRICITY   = .0000733
INCLINATION    = 53.1573
RA_OF_ASC_NODE = 229.5416
ARG_OF_PERICENTER = 76.1939
MEAN_ANOMALY   = 149.5557

EPHEMERIS_TYPE = 0
CLASSIFICATION_TYPE = U
NORAD_CAT_ID   = 68290
ELEMENT_SET_NO = 999
REV_AT_EPOCH   = 308
BSTAR          = -.53638E-2
MEAN_MOTION_DOT = -.1795395E-1
MEAN_MOTION_DDOT = .88882E-3

CCSDS_OMM_VERS = 2.0
CREATION_DATE  = 
ORIGINATOR     = 

OBJECT_NAME    = STRIX-6
OBJECT_ID      = 2026-056A
CENTER_NAME    = EARTH
REF_FRAME      = TEME
TIME_SYSTEM    = UTC
MEAN_ELEMENT_THEORY = SGP/SGP4

EPOCH          = 2026-03-31T02:40:40.131840
MEAN_MOTION    = 14.99636442
ECCENTRICITY   = .0016571
INCLINATION    = 50.2845
RA_OF_ASC_NODE = 358.7202
ARG_OF_PERICENTER = 304.8144
MEAN_ANOMALY   = 55.1245

EPHEMERIS_TYPE = 0
CLASSIFICATION_TYPE = U
NORAD_CAT_ID   = 68291
ELEMENT_SET_NO = 999
REV_AT_EPOCH   = 155
BSTAR          = .52653E-3
MEAN_MOTION_DOT = .632E-4
MEAN_MOTION_DDOT = 0

CCSDS_OMM_VERS = 2.0
CREATION_DATE  = 
ORIGINATOR     = 

OBJECT_NAME    = ELECTRON R/B
OBJECT_ID      = 2026-056B
CENTER_NAME    = EARTH
REF_FRAME      = TEME
TIME_SYSTEM    = UTC
MEAN_ELEMENT_THEORY = SGP/SGP4

EPOCH          = 2026-03-31T04:19:37.587360
MEAN_MOTION    = 16.24789301
ECCENTRICITY   = .0095099
INCLINATION    = 50.2498
RA_OF_ASC_NODE = 351.4745
ARG_OF_PERICENTER = 288.2713
MEAN_ANOMALY   = 70.7957

EPHEMERIS_TYPE = 0
CLASSIFICATION_TYPE = U
NORAD_CAT_ID   = 68292
ELEMENT_SET_NO = 999
REV_AT_EPOCH   = 165
BSTAR          = .58218E-3
MEAN_MOTION_DOT = .9195672E-1
MEAN_MOTION_DDOT = .12061E-4

